STARLINK-2236
1 48582U 21041AF  26092.43073027  .00022849  00000+0  14739-2 0  9990
2 48582  53.0551 350.0761 0001454 128.3363 231.7758 15.08212376269274
